*******************************************************************************
Ephemeris / WWW_USER Mon Mar 24 11:29:37 2025 Pasadena, USA      / Horizons    
*******************************************************************************
Target body name: 341764 (2007 VZ326)             {source: JPL#18}
Center body name: Earth (399)                     {source: DE441}
Center-site name: Mauna Kea
*******************************************************************************
Start time      : A.D. 2018-Aug-27 04:51:00.0000 UT      
Stop  time      : A.D. 2018-Aug-27 15:56:00.0000 UT      
Step-size       : 1 minutes
*******************************************************************************
Target pole/equ : undefined
Target radii    : undefined                                                    
Center geodetic : 204.5278, 19.8260847, 4.21024   {E-lon(deg),Lat(deg),Alt(km)}
Center cylindric: 204.5278, 6006.35451, 2151.0229 {E-lon(deg),Dxy(km),Dz(km)}
Center pole/equ : ITRF93                          {East-longitude positive}
Center radii    : 6378.137, 6378.137, 6356.752 km {Equator_a, b, pole_c}       
Target primary  : Sun
Vis. interferer : MOON (R_eq= 1737.400) km        {source: DE441}
Rel. light bend : Sun                             {source: DE441}
Rel. lght bnd GM: 1.3271E+11 km^3/s^2                                          
Small-body perts: Yes                             {source: SB441-N16}
Atmos refraction: NO (AIRLESS)
RA format       : HMS
Time format     : CAL 
Calendar mode   : Mixed Julian/Gregorian
RTS-only print  : NO       
EOP file        : eop.250321.p250617                                           
EOP coverage    : DATA-BASED 1962-JAN-20 TO 2025-MAR-21. PREDICTS-> 2025-JUN-16
Units conversion: 1 au= 149597870.700 km, c= 299792.458 km/s, 1 day= 86400.0 s 
Table cut-offs 1: Elevation (-90.0deg=NO ),Airmass (>38.000=NO), Daylight (YES)
Table cut-offs 2: Solar elongation (  0.0,180.0=NO ),Local Hour Angle( 0.0=NO )
Table cut-offs 3: RA/DEC angular rate (     0.0=NO )                           
*******************************************************************************
Initial IAU76/J2000 heliocentric ecliptic osculating elements (au, days, deg.):
  EPOCH=  2458738.5 ! 2019-Sep-12.00 (TDB)         Residual RMS= .13886        
   EC= .1008373990761695   QR= 2.768240023430626   TP= 2458584.3440952813      
   OM= 228.7009686323446   W=  245.4004729743531   IN= 4.232471987434818       
  Equivalent ICRF heliocentric cartesian coordinates (au, au/d):
   X=-2.388613100272569E+00  Y= 1.431394755664809E+00  Z= 3.975078424350988E-01
  VX=-6.081658482309184E-03 VY=-8.102092841560219E-03 VZ=-3.413222734767960E-03
Asteroid physical parameters (km, seconds, rotational period in hours):        
   GM= n.a.                RAD= n.a.               ROTPER= n.a.                
   H= 16.54                G= .150                 B-V= n.a.                   
                           ALBEDO= n.a.            STYP= n.a.                  
*******************************************************************************
 Date__(UT)__HR:MN     R.A._________(ICRF)_________DEC
******************************************************
$$SOE
 2018-Aug-27 15:06 Am  05 33 15.414396 +22 12 57.98482
 2018-Aug-27 15:07 Am  05 33 15.467004 +22 12 57.97551
 2018-Aug-27 15:08 Am  05 33 15.519610 +22 12 57.96619
 2018-Aug-27 15:09 Am  05 33 15.572214 +22 12 57.95685
 2018-Aug-27 15:10 Am  05 33 15.624815 +22 12 57.94749
 2018-Aug-27 15:11 Am  05 33 15.677414 +22 12 57.93811
 2018-Aug-27 15:12 Am  05 33 15.730010 +22 12 57.92871
 2018-Aug-27 15:13 Am  05 33 15.782604 +22 12 57.91930
 2018-Aug-27 15:14 Am  05 33 15.835195 +22 12 57.90987
 2018-Aug-27 15:15 Am  05 33 15.887784 +22 12 57.90042
 2018-Aug-27 15:16 Am  05 33 15.940370 +22 12 57.89096
 2018-Aug-27 15:17 Nm  05 33 15.992954 +22 12 57.88147
 2018-Aug-27 15:18 Nm  05 33 16.045536 +22 12 57.87197
 2018-Aug-27 15:19 Nm  05 33 16.098115 +22 12 57.86245
 2018-Aug-27 15:20 Nm  05 33 16.150692 +22 12 57.85291
 2018-Aug-27 15:21 Nm  05 33 16.203267 +22 12 57.84336
 2018-Aug-27 15:22 Nm  05 33 16.255839 +22 12 57.83378
 2018-Aug-27 15:23 Nm  05 33 16.308409 +22 12 57.82419
 2018-Aug-27 15:24 Nm  05 33 16.360976 +22 12 57.81458
 2018-Aug-27 15:25 Nm  05 33 16.413542 +22 12 57.80495
 2018-Aug-27 15:26 Nm  05 33 16.466105 +22 12 57.79530
 2018-Aug-27 15:27 Nm  05 33 16.518666 +22 12 57.78563
 2018-Aug-27 15:28 Nm  05 33 16.571224 +22 12 57.77595
 2018-Aug-27 15:29 Nm  05 33 16.623780 +22 12 57.76625
 2018-Aug-27 15:30 Nm  05 33 16.676335 +22 12 57.75653
 2018-Aug-27 15:31 Nm  05 33 16.728886 +22 12 57.74679
 2018-Aug-27 15:32 Nm  05 33 16.781436 +22 12 57.73703
 2018-Aug-27 15:33 Nm  05 33 16.833984 +22 12 57.72725
 2018-Aug-27 15:34 Nm  05 33 16.886529 +22 12 57.71745
 2018-Aug-27 15:35 Nm  05 33 16.939072 +22 12 57.70764
 2018-Aug-27 15:36 Nm  05 33 16.991613 +22 12 57.69781
 2018-Aug-27 15:37 Nm  05 33 17.044152 +22 12 57.68795
 2018-Aug-27 15:38 Nm  05 33 17.096689 +22 12 57.67808
 2018-Aug-27 15:39 Nm  05 33 17.149224 +22 12 57.66819
 2018-Aug-27 15:40 Nm  05 33 17.201756 +22 12 57.65828
 2018-Aug-27 15:41 Nm  05 33 17.254287 +22 12 57.64836
 2018-Aug-27 15:42 Nm  05 33 17.306815 +22 12 57.63841
 2018-Aug-27 15:43 Cm  05 33 17.359342 +22 12 57.62844
 2018-Aug-27 15:44 Cm  05 33 17.411866 +22 12 57.61846
 2018-Aug-27 15:45 Cm  05 33 17.464389 +22 12 57.60845
 2018-Aug-27 15:46 Cm  05 33 17.516909 +22 12 57.59843
 2018-Aug-27 15:47 Cm  05 33 17.569428 +22 12 57.58839
 2018-Aug-27 15:48 Cm  05 33 17.621944 +22 12 57.57833
 2018-Aug-27 15:49 Cm  05 33 17.674459 +22 12 57.56825
 2018-Aug-27 15:50 Cm  05 33 17.726971 +22 12 57.55814
 2018-Aug-27 15:51 Cm  05 33 17.779482 +22 12 57.54803
 2018-Aug-27 15:52 Cm  05 33 17.831991 +22 12 57.53789
 2018-Aug-27 15:53 Cm  05 33 17.884498 +22 12 57.52773
 2018-Aug-27 15:54 Cm  05 33 17.937003 +22 12 57.51755
 2018-Aug-27 15:55 Cm  05 33 17.989506 +22 12 57.50735
 2018-Aug-27 15:56 Cm  05 33 18.042007 +22 12 57.49713
